NORAD_CAT_ID,OBJECT_NAME,OBJECT_TYPE,EPOCH,MEAN_MOTION,ECCENTRICITY,INCLINATION,RA_OF_ASC_NODE,ARG_OF_PERICENTER,MEAN_ANOMALY,BSTAR,MEAN_MOTION_DOT,MEAN_MOTION_DDOT,TLE_LINE0,TLE_LINE1,TLE_LINE2,SEMIMAJOR_AXIS,PERIOD,APOGEE,PERIGEE,DECAYED
52457.0,STARLINK-3899,PAYLOAD,2022-05-22 06:00:00,15.73233858,0.0002133,53.2159,187.9044,26.0127,139.7451,-0.00048117,-0.00067714,0.0,0 STARLINK-3899,1 52457U 22049G   22142.25001157 -.00067714  00000-0 -48117-3 0  9993,2 52457  53.2159 187.9044 0002133  26.0127 139.7451 15.73233858  2669,6727.799,91.531,351.099,348.22900000000016,0.0
52457.0,STARLINK-3899,PAYLOAD,2022-05-22 14:00:01,15.73173743,0.0002279,53.216,186.257,17.8824,236.7927,6.0619e-05,7.885e-05,0.0,0 STARLINK-3899,1 52457U 22049G   22142.58334491  .00007885  00000-0  60619-4 0  9992,2 52457  53.2160 186.2570 0002279  17.8824 236.7927 15.73173743  1302,6727.97,91.535,351.36800000000005,348.302,0.0
52457.0,STARLINK-3899,PAYLOAD,2022-05-22 22:00:01,15.73105989,0.0002282,53.2168,184.6066,12.1341,331.3964,0.00055203,0.00077261,0.0,0 STARLINK-3899,1 52457U 22049G   22142.91668981  .00077261  00000-0  55203-3 0  9990,2 52457  53.2168 184.6066 0002282  12.1341 331.3964 15.73105989  2770,6728.163000000001,91.539,351.564,348.49300000000005,0.0
52457.0,STARLINK-3899,PAYLOAD,2022-05-23 04:00:00,15.73343053,0.0002283,53.2172,183.3704,11.9041,308.1449,-0.0041685,-0.00552337,0.0,0 STARLINK-3899,1 52457U 22049G   22143.16667824 -.00552337  00000-0 -41685-2 0  9995,2 52457  53.2172 183.3704 0002283  11.9041 308.1449 15.73343053  2805,6727.486999999999,91.525,350.88800000000015,347.816,0.0
52457.0,STARLINK-3899,PAYLOAD,2022-05-23 14:00:01,15.72818218,0.0002289,53.2173,181.3133,22.0506,139.0068,-0.0056059,-0.00712443,0.0,0 STARLINK-3899,1 52457U 22049G   22143.58334491 -.00712443  00000-0 -56059-2 0  9999,2 52457  53.2173 181.3133 0002289  22.0506 139.0068 15.72818218  1306,6728.984,91.555,352.389,349.309,0.0
52457.0,STARLINK-3899,PAYLOAD,2022-05-23 16:00:00,15.72696099,0.0002121,53.2172,180.9009,23.1343,250.0193,-0.0057159,-0.00721766,0.0,0 STARLINK-3899,1 52457U 22049G   22143.66667824 -.00721766  00000-0 -57159-2 0  9997,2 52457  53.2172 180.9009 0002121  23.1343 250.0193 15.72696099  2886,6729.331999999999,91.563,352.624,349.77,0.0
52457.0,STARLINK-3899,PAYLOAD,2022-05-23 22:00:01,15.72310991,0.0002332,53.2175,179.6644,19.1636,230.1209,-0.0057709,-0.00717227,0.0,0 STARLINK-3899,1 52457U 22049G   22143.91668981 -.00717227  00000-0 -57709-2 0  9998,2 52457  53.2175 179.6644 0002332  19.1636 230.1209 15.72310991  1300,6730.431,91.585,353.866,350.726,0.0
52457.0,STARLINK-3899,PAYLOAD,2022-05-24 03:02:50,15.72326191,0.0002586,53.216,178.6194,310.482,49.5974,-0.0024679,-0.00321902,0.0,0 STARLINK-3899,1 52457U 22049G   22144.12697156 -.00321902  00000-0 -24679-2 0  9999,2 52457  53.2160 178.6194 0002586 310.4820  49.5974 15.72326191  2969,6730.388000000001,91.584,353.99300000000005,350.51199999999994,0.0
52457.0,STARLINK-3899,PAYLOAD,2022-05-24 13:43:47,15.71800542,0.0004319,53.2161,176.4211,286.9078,73.1468,-0.0025286,-0.00322676,0.0,0 STARLINK-3899,1 52457U 22049G   22144.57207469 -.00322676  00000-0 -25286-2 0  9996,2 52457  53.2161 176.4211 0004319 286.9078  73.1468 15.71800542  2871,6731.888000000001,91.615,356.661,350.846,0.0
52457.0,STARLINK-3899,PAYLOAD,2022-05-24 14:00:01,15.71295106,0.0001607,53.2172,176.3767,349.7314,73.9687,-0.0060802,-0.0072296999999999,0.0,0 STARLINK-3899,1 52457U 22049G   22144.58334491 -.00722970  00000-0 -60802-2 0  9997,2 52457  53.2172 176.3767 0001607 349.7314  73.9687 15.71295106  3030,6733.331999999999,91.644,356.279,354.115,0.0
52457.0,STARLINK-3899,PAYLOAD,2022-05-24 22:00:00,15.70785675,0.0003488,53.2174,174.7316,309.2255,200.799,-0.0062342,-0.00725778,0.0,0 STARLINK-3899,1 52457U 22049G   22144.91667824 -.00725778  00000-0 -62342-2 0  9993,2 52457  53.2174 174.7316 0003488 309.2255 200.7990 15.70785675  1307,6734.7869999999975,91.674,359.001,354.30300000000005,0.0
52457.0,STARLINK-3899,PAYLOAD,2022-05-25 06:00:00,15.702629,0.0005387,53.2178,173.0908,305.6462,290.0923,-0.0061525,-0.00703247,0.0,0 STARLINK-3899,1 52457U 22049G   22145.25001157 -.00703247  00000-0 -61525-2 0  9991,2 52457  53.2178 173.0908 0005387 305.6462 290.0923 15.70262900  3132,6736.281999999997,91.704,361.776,354.51800000000014,0.0
52457.0,STARLINK-3899,PAYLOAD,2022-05-25 12:00:00,15.69886459,0.0003127,53.2177,171.8613,255.9899,313.6265,-0.0063644,-0.0071432,0.0,0 STARLINK-3899,1 52457U 22049G   22145.50001157 -.00714320  00000-0 -63644-2 0  9997,2 52457  53.2177 171.8613 0003127 255.9899 313.6265 15.69886459  3175,6737.359,91.726,361.331,357.117,0.0
52457.0,STARLINK-3899,PAYLOAD,2022-05-25 14:00:01,15.69752327,0.0002835,53.2174,171.4511,251.2274,69.6074,-0.00626,-0.00699812,0.0,0 STARLINK-3899,1 52457U 22049G   22145.58334491 -.00699812  00000-0 -62600-2 0  9994,2 52457  53.2174 171.4511 0002835 251.2274  69.6074 15.69752327  1301,6737.743,91.734,361.518,357.69699999999995,0.0
52457.0,STARLINK-3899,PAYLOAD,2022-05-25 22:00:00,15.69252911,7.54e-05,53.2174,169.8098,309.052,96.2656,-0.0065878999999999,-0.00719079,0.0,0 STARLINK-3899,1 52457U 22049G   22145.91667824 -.00719079  00000-0 -65879-2 0  9999,2 52457  53.2174 169.8098 0000754 309.0520  96.2656 15.69252911  1302,6739.172,91.763,361.545,360.529,0.0
52457.0,STARLINK-3899,PAYLOAD,2022-05-26 14:00:01,15.68232326,0.0001159,53.2171,166.5369,87.8114,124.6355,-0.0068581,-0.00717773,0.0,0 STARLINK-3899,1 52457U 22049G   22146.58334491 -.00717773  00000-0 -68581-2 0  9996,2 52457  53.2171 166.5369 0001159  87.8114 124.6355 15.68232326  3349,6742.096,91.823,364.742,363.179,0.0
52457.0,STARLINK-3899,PAYLOAD,2022-05-26 22:00:00,15.67720183,0.000107,53.2174,164.8993,80.3745,214.7208,-0.0069676999999999,-0.00714315,0.0,0 STARLINK-3899,1 52457U 22049G   22146.91667824 -.00714315  00000-0 -69677-2 0  9998,2 52457  53.2174 164.8993 0001070  80.3745 214.7208 15.67720183  1300,6743.564,91.853,366.15,364.707,0.0
52457.0,STARLINK-3899,PAYLOAD,2022-05-27 01:20:09,15.68078559,3.4e-05,53.2157,164.2045,149.1569,210.9469,-0.0025635,-0.00281241,0.0,0 STARLINK-3899,1 52457U 22049G   22147.05566673 -.00281241  00000-0 -25635-2 0  9997,2 52457  53.2157 164.2045 0000340 149.1569 210.9469 15.68078559  3426,6742.536,91.832,364.631,364.172,0.0
52457.0,STARLINK-3899,PAYLOAD,2022-05-27 13:34:53,15.67269959,0.0001056,53.2155,161.703,89.8008,270.3131,-0.0035824,-0.00375799,0.0,0 STARLINK-3899,1 52457U 22049G   22147.56589173 -.00375799  00000-0 -35824-2 0  9996,2 52457  53.2155 161.7030 0001056  89.8008 270.3131 15.67269959  3345,6744.855,91.88,367.4330000000001,366.008,0.0
52457.0,STARLINK-3899,PAYLOAD,2022-05-27 16:00:00,15.66528278,0.0001175,53.2169,161.2235,69.5146,139.3166,-0.0066546,-0.00654591,0.0,0 STARLINK-3899,1 52457U 22049G   22147.66667824 -.00654591  00000-0 -66546-2 0  9992,2 52457  53.2169 161.2235 0001175  69.5146 139.3166 15.66528278  3514,6746.984,91.923,369.642,368.056,0.0
52457.0,STARLINK-3899,PAYLOAD,2022-05-27 22:00:01,15.66191844,0.0001234,53.2173,159.9998,70.9095,108.5122,-0.0074417,-0.00716623,0.0,0 STARLINK-3899,1 52457U 22049G   22147.91668981 -.00716623  00000-0 -74417-2 0  9996,2 52457  53.2173 159.9998 0001234  70.9095 108.5122 15.66191844  1304,6747.95,91.943,370.648,368.983,0.0
52457.0,STARLINK-3899,PAYLOAD,2022-05-28 06:00:02,15.6568024,0.0001314,53.2176,158.3709,60.1637,199.4527,-0.0075658,-0.0071391,0.0,0 STARLINK-3899,1 52457U 22049G   22148.25002315 -.00713910  00000-0 -75658-2 0  9991,2 52457  53.2176 158.3709 0001314  60.1637 199.4527 15.65680240  3607,6749.42,91.973,372.172,370.398,0.0
52457.0,STARLINK-3899,PAYLOAD,2022-05-28 14:00:01,15.65172745,0.0001005,53.2172,156.7418,83.5784,255.5535,-0.0077586,-0.00716958,0.0,0 STARLINK-3899,1 52457U 22049G   22148.58334491 -.00716958  00000-0 -77586-2 0  9997,2 52457  53.2172 156.7418 0001005  83.5784 255.5535 15.65172745  1305,6750.879,92.003,373.422,372.066,0.0
52457.0,STARLINK-3899,PAYLOAD,2022-05-28 22:00:00,15.64661191,0.0001046,53.2172,155.1118,72.9344,345.1691,-0.0079077,-0.00715996,0.0,0 STARLINK-3899,1 52457U 22049G   22148.91667824 -.00715996  00000-0 -79077-2 0  9991,2 52457  53.2172 155.1118 0001046  72.9344 345.1691 15.64661191  1300,6752.35,92.033,374.922,373.509,0.0
52457.0,STARLINK-3899,PAYLOAD,2022-05-29 06:00:02,15.64151209,0.0001288,53.2172,153.4865,60.7643,75.7599,-0.0080612,-0.00715298,0.0,0 STARLINK-3899,1 52457U 22049G   22149.25002315 -.00715298  00000-0 -80612-2 0  9999,2 52457  53.2172 153.4865 0001288  60.7643  75.7599 15.64151209  3764,6753.818,92.063,376.55300000000005,374.81300000000016,0.0
52457.0,STARLINK-3899,PAYLOAD,2022-05-29 14:00:01,15.63643488,0.000119,53.2172,151.8609,82.4694,131.7326,-0.0082718,-0.00718972,0.0,0 STARLINK-3899,1 52457U 22049G   22149.58334491 -.00718972  00000-0 -82718-2 0  9999,2 52457  53.2172 151.8609 0001190  82.4694 131.7326 15.63643488  1304,6755.28,92.093,377.949,376.341,0.0
52457.0,STARLINK-3899,PAYLOAD,2022-05-29 22:00:00,15.63130423,0.000115,53.2174,150.2346,78.4107,212.9245,-0.008374,-0.00713684,0.0,0 STARLINK-3899,1 52457U 22049G   22149.91667824 -.00713684  00000-0 -83740-2 0  9996,2 52457  53.2174 150.2346 0001150  78.4107 212.9245 15.63130423  1309,6756.7580000000025,92.123,379.4,377.846,0.0
52457.0,STARLINK-3899,PAYLOAD,2022-05-30 06:00:00,15.62622597,0.0001112,53.2176,148.6134,68.8172,299.0342,-0.0085837,-0.00716777,0.0,0 STARLINK-3899,1 52457U 22049G   22150.25001157 -.00716777  00000-0 -85837-2 0  9991,2 52457  53.2176 148.6134 0001112  68.8172 299.0342 15.62622597  3921,6758.222,92.153,380.838,379.335,0.0
52457.0,STARLINK-3899,PAYLOAD,2022-05-30 14:00:01,15.62112107,0.0001057,53.2171,146.9911,81.8392,1.918,-0.0087386,-0.00715354,0.0,0 STARLINK-3899,1 52457U 22049G   22150.58334491 -.00715354  00000-0 -87386-2 0  9998,2 52457  53.2171 146.9911 0001057  81.8392   1.9180 15.62112107  1308,6759.694,92.183,382.274,380.845,0.0
